{
    "links": {
        "self": "http://www.neowsapp.com/rest/v1/neo/3388321?api_key=iIulBulltgU6a56xZRHN4H3l9WmuAYTsLGpBGhQ2"
    },
    "id": "3388321",
    "neo_reference_id": "3388321",
    "name": "(2007 TB25)",
    "designation": "2007 TB25",
    "nasa_jpl_url": "http://ssd.jpl.nasa.gov/sbdb.cgi?sstr=3388321",
    "absolute_magnitude_h": 22.2,
    "estimated_diameter": {
        "kilometers": {
            "estimated_diameter_min": 0.096506147,
            "estimated_diameter_max": 0.2157943048
        },
        "meters": {
            "estimated_diameter_min": 96.5061469579,
            "estimated_diameter_max": 215.7943048444
        },
        "miles": {
            "estimated_diameter_min": 0.059966121,
            "estimated_diameter_max": 0.134088323
        },
        "feet": {
            "estimated_diameter_min": 316.6212271853,
            "estimated_diameter_max": 707.9865871058
        }
    },
    "is_potentially_hazardous_asteroid": false,
    "close_approach_data": [
        {
            "close_approach_date": "2007-10-14",
            "close_approach_date_full": "2007-Oct-14 13:30",
            "epoch_date_close_approach": 1192368600000,
            "relative_velocity": {
                "kilometers_per_second": "12.1480911582",
                "kilometers_per_hour": "43733.1281694977",
                "miles_per_hour": "27174.0651117637"
            },
            "miss_distance": {
                "astronomical": "0.1443759077",
                "lunar": "56.1622280953",
                "kilometers": "21598328.271236599",
                "miles": "13420578.8672351062"
            },
            "orbiting_body": "Earth"
        }
    ],
    "orbital_data": {
        "orbit_id": "6",
        "orbit_determination_date": "2017-04-06 09:05:43",
        "first_observation_date": "2007-10-11",
        "last_observation_date": "2007-10-12",
        "data_arc_in_days": 1,
        "observations_used": 15,
        "orbit_uncertainty": "9",
        "minimum_orbit_intersection": ".121422",
        "jupiter_tisserand_invariant": "3.330",
        "epoch_osculation": "2454385.5",
        "eccentricity": ".5585743109930932",
        "semi_major_axis": "2.313340860204928",
        "inclination": "12.26435300675344",
        "ascending_node_longitude": "183.7280525348437",
        "orbital_period": "1285.161983193754",
        "perihelion_distance": "1.021168083123791",
        "perihelion_argument": "235.3912033902181",
        "aphelion_distance": "3.605513637286066",
        "perihelion_time": "2454417.440957974994",
        "mean_anomaly": "351.0526882825912",
        "mean_motion": ".2801203309059646",
        "equinox": "J2000",
        "orbit_class": {
            "orbit_class_type": "AMO",
            "orbit_class_description": "Near-Earth asteroid orbits similar to that of 1221 Amor",
            "orbit_class_range": "1.017 AU < q (perihelion) < 1.3 AU"
        }
    },
    "is_sentry_object": false
}